[{"OBJECT_NAME":"GNOMES-4","OBJECT_ID":"2023-185A","EPOCH":"2026-03-09T23:48:26.932032","MEAN_MOTION":15.00198915,"ECCENTRICITY":0.000923,"INCLINATION":97.5118,"RA_OF_ASC_NODE":129.6992,"ARG_OF_PERICENTER":282.2655,"MEAN_ANOMALY":77.7535,"EPHEMERIS_TYPE":0,"CLASSIFICATION_TYPE":"U","NORAD_CAT_ID":58462,"ELEMENT_SET_NO":999,"REV_AT_EPOCH":12441,"BSTAR":0.00042532845,"MEAN_MOTION_DOT":5.265e-5,"MEAN_MOTION_DDOT":0},{"OBJECT_NAME":"STARLINK-36159","OBJECT_ID":"2025-298E","EPOCH":"2026-03-09T22:03:03.380832","MEAN_MOTION":14.99153219,"ECCENTRICITY":0.00023256,"INCLINATION":70.0019,"RA_OF_ASC_NODE":13.8101,"ARG_OF_PERICENTER":251.4113,"MEAN_ANOMALY":108.6794,"EPHEMERIS_TYPE":0,"CLASSIFICATION_TYPE":"U","NORAD_CAT_ID":67079,"ELEMENT_SET_NO":999,"REV_AT_EPOCH":1325,"BSTAR":0.0001811037,"MEAN_MOTION_DOT":2.114e-5,"MEAN_MOTION_DDOT":0}]
